[
    {
        "Altitude(m)": 555411.1869287569,
        "Argument of Periapsis(deg)": 0.013245982221427002,
        "Eccentricity": 0.0,
        "Inclination(deg)": 53.0,
        "Latitude(deg)": 32.1378568323076,
        "Longitude(deg)": 90.33684669886898,
        "Mean Anomaly(deg)": 138.36508573515516,
        "RAAN(deg)": 39.98028673705603,
        "Satellite Name": "Starlink Shell 1 183",
        "Satellite Number": 183,
        "Semi-Major Axis(m)": 6931778.249405717,
        "Time(s)": 380
    },
    {
        "Altitude(m)": 555334.0058002275,
        "Argument of Periapsis(deg)": 0.013594560700938237,
        "Eccentricity": 0.0,
        "Inclination(deg)": 53.0,
        "Latitude(deg)": 31.69326665190294,
        "Longitude(deg)": 90.81744905169607,
        "Mean Anomaly(deg)": 138.9919169387119,
        "RAAN(deg)": 39.97976796697856,
        "Satellite Name": "Starlink Shell 1 183",
        "Satellite Number": 183,
        "Semi-Major Axis(m)": 6931778.249405717,
        "Time(s)": 390
    },
    {
        "Altitude(m)": 555257.6815516762,
        "Argument of Periapsis(deg)": 0.013943139180449475,
        "Eccentricity": 0.0,
        "Inclination(deg)": 53.0,
        "Latitude(deg)": 31.246530135991552,
        "Longitude(deg)": 91.29309113377441,
        "Mean Anomaly(deg)": 139.6187481422686,
        "RAAN(deg)": 39.97924919690109,
        "Satellite Name": "Starlink Shell 1 183",
        "Satellite Number": 183,
        "Semi-Major Axis(m)": 6931778.249405717,
        "Time(s)": 400
    },
    {
        "Altitude(m)": 555182.2688375465,
        "Argument of Periapsis(deg)": 0.014291717659960712,
        "Eccentricity": 0.0,
        "Inclination(deg)": 53.0,
        "Latitude(deg)": 30.797703415414592,
        "Longitude(deg)": 91.76388264203773,
        "Mean Anomaly(deg)": 140.24557934582532,
        "RAAN(deg)": 39.97873042682362,
        "Satellite Name": "Starlink Shell 1 183",
        "Satellite Number": 183,
        "Semi-Major Axis(m)": 6931778.249405717,
        "Time(s)": 410
    },
    {
        "Altitude(m)": 555107.8220506932,
        "Argument of Periapsis(deg)": 0.014640296139471948,
        "Eccentricity": 0.0,
        "Inclination(deg)": 53.0,
        "Latitude(deg)": 30.34684136384888,
        "Longitude(deg)": 92.22993153318164,
        "Mean Anomaly(deg)": 140.87241054938204,
        "RAAN(deg)": 39.97821165674614,
        "Satellite Name": "Starlink Shell 1 183",
        "Satellite Number": 183,
        "Semi-Major Axis(m)": 6931778.249405717,
        "Time(s)": 420
    },
    {
        "Altitude(m)": 555034.395293829,
        "Argument of Periapsis(deg)": 0.014988874618983185,
        "Eccentricity": 0.0,
        "Inclination(deg)": 53.0,
        "Latitude(deg)": 29.893997630238275,
        "Longitude(deg)": 92.6913445029853,
        "Mean Anomaly(deg)": 141.49924175293873,
        "RAAN(deg)": 39.97769288666867,
        "Satellite Name": "Starlink Shell 1 183",
        "Satellite Number": 183,
        "Semi-Major Axis(m)": 6931778.249405717,
        "Time(s)": 430
    },
    {
        "Altitude(m)": 554962.0423510642,
        "Argument of Periapsis(deg)": 0.015337453098494424,
        "Eccentricity": 0.0,
        "Inclination(deg)": 53.0,
        "Latitude(deg)": 29.439224670950868,
        "Longitude(deg)": 93.14822747033487,
        "Mean Anomaly(deg)": 142.12607295649548,
        "RAAN(deg)": 39.9771741165912,
        "Satellite Name": "Starlink Shell 1 183",
        "Satellite Number": 183,
        "Semi-Major Axis(m)": 6931778.249405717,
        "Time(s)": 440
    },
    {
        "Altitude(m)": 554890.8166595462,
        "Argument of Periapsis(deg)": 0.01568603157800566,
        "Eccentricity": 0.0,
        "Inclination(deg)": 53.0,
        "Latitude(deg)": 28.98257378161831,
        "Longitude(deg)": 93.60068455273314,
        "Mean Anomaly(deg)": 142.7529041600522,
        "RAAN(deg)": 39.97665534651372,
        "Satellite Name": "Starlink Shell 1 183",
        "Satellite Number": 183,
        "Semi-Major Axis(m)": 6931778.249405717,
        "Time(s)": 450
    },
    {
        "Altitude(m)": 554820.771281259,
        "Argument of Periapsis(deg)": 0.0160346100575169,
        "Eccentricity": 0.0,
        "Inclination(deg)": 53.0,
        "Latitude(deg)": 28.524095128618484,
        "Longitude(deg)": 94.04881855872152,
        "Mean Anomaly(deg)": 143.37973536360892,
        "RAAN(deg)": 39.976136576436254,
        "Satellite Name": "Starlink Shell 1 183",
        "Satellite Number": 183,
        "Semi-Major Axis(m)": 6931778.249405717,
        "Time(s)": 460
    },
    {
        "Altitude(m)": 554751.9588749398,
        "Argument of Periapsis(deg)": 0.016383188537028134,
        "Eccentricity": 0.0,
        "Inclination(deg)": 53.0,
        "Latitude(deg)": 28.063837780168047,
        "Longitude(deg)": 94.49273148403456,
        "Mean Anomaly(deg)": 144.00656656716563,
        "RAAN(deg)": 39.97561780635878,
        "Satellite Name": "Starlink Shell 1 183",
        "Satellite Number": 183,
        "Semi-Major Axis(m)": 6931778.249405717,
        "Time(s)": 470
    },
    {
        "Altitude(m)": 554684.4316681536,
        "Argument of Periapsis(deg)": 0.01673176701653937,
        "Eccentricity": 0.0,
        "Inclination(deg)": 53.0,
        "Latitude(deg)": 27.60184973699491,
        "Longitude(deg)": 94.93252349832576,
        "Mean Anomaly(deg)": 144.63339777072233,
        "RAAN(deg)": 39.97509903628131,
        "Satellite Name": "Starlink Shell 1 183",
        "Satellite Number": 183,
        "Semi-Major Axis(m)": 6931778.249405717,
        "Time(s)": 480
    },
    {
        "Altitude(m)": 554618.2414295408,
        "Argument of Periapsis(deg)": 0.017080345496050607,
        "Eccentricity": 0.0,
        "Inclination(deg)": 53.0,
        "Latitude(deg)": 27.13817796256724,
        "Longitude(deg)": 95.36829344794297,
        "Mean Anomaly(deg)": 145.26022897427904,
        "RAAN(deg)": 39.97458026620384,
        "Satellite Name": "Starlink Shell 1 183",
        "Satellite Number": 183,
        "Semi-Major Axis(m)": 6931778.249405717,
        "Time(s)": 490
    },
    {
        "Altitude(m)": 554553.4394412534,
        "Argument of Periapsis(deg)": 0.017428923975561842,
        "Eccentricity": 0.0,
        "Inclination(deg)": 53.0,
        "Latitude(deg)": 26.6728684128554,
        "Longitude(deg)": 95.8001393616259,
        "Mean Anomaly(deg)": 145.88706017783576,
        "RAAN(deg)": 39.97406149612636,
        "Satellite Name": "Starlink Shell 1 183",
        "Satellite Number": 183,
        "Semi-Major Axis(m)": 6931778.249405717,
        "Time(s)": 500
    },
    {
        "Altitude(m)": 554490.0764716018,
        "Argument of Periapsis(deg)": 0.01777750245507308,
        "Eccentricity": 0.0,
        "Inclination(deg)": 53.0,
        "Latitude(deg)": 26.205966065611637,
        "Longitude(deg)": 96.22815744601215,
        "Mean Anomaly(deg)": 146.51389138139245,
        "RAAN(deg)": 39.97354272604889,
        "Satellite Name": "Starlink Shell 1 183",
        "Satellite Number": 183,
        "Semi-Major Axis(m)": 6931778.249405717,
        "Time(s)": 510
    },
    {
        "Altitude(m)": 554428.2027478877,
        "Argument of Periapsis(deg)": 0.018126080934584315,
        "Eccentricity": 0.0,
        "Inclination(deg)": 53.0,
        "Latitude(deg)": 25.73751494915108,
        "Longitude(deg)": 96.65244259647838,
        "Mean Anomaly(deg)": 147.1407225849492,
        "RAAN(deg)": 39.97302395597142,
        "Satellite Name": "Starlink Shell 1 183",
        "Satellite Number": 183,
        "Semi-Major Axis(m)": 6931778.249405717,
        "Time(s)": 520
    },
    {
        "Altitude(m)": 554367.8679294728,
        "Argument of Periapsis(deg)": 0.018474659414095554,
        "Eccentricity": 0.0,
        "Inclination(deg)": 53.0,
        "Latitude(deg)": 25.267558170623396,
        "Longitude(deg)": 97.07308891023321,
        "Mean Anomaly(deg)": 147.7675537885059,
        "RAAN(deg)": 39.97250518589394,
        "Satellite Name": "Starlink Shell 1 183",
        "Satellite Number": 183,
        "Semi-Major Axis(m)": 6931778.249405717,
        "Time(s)": 530
    },
    {
        "Altitude(m)": 554309.1210811225,
        "Argument of Periapsis(deg)": 0.018823237893606792,
        "Eccentricity": 0.0,
        "Inclination(deg)": 53.0,
        "Latitude(deg)": 24.79613794376652,
        "Longitude(deg)": 97.49018868859142,
        "Mean Anomaly(deg)": 148.39438499206264,
        "RAAN(deg)": 39.97198641581647,
        "Satellite Name": "Starlink Shell 1 183",
        "Satellite Number": 183,
        "Semi-Major Axis(m)": 6931778.249405717,
        "Time(s)": 540
    },
    {
        "Altitude(m)": 554252.0106465569,
        "Argument of Periapsis(deg)": 0.019171816373118027,
        "Eccentricity": 0.0,
        "Inclination(deg)": 53.0,
        "Latitude(deg)": 24.323295616135137,
        "Longitude(deg)": 97.90383295399778,
        "Mean Anomaly(deg)": 149.02121619561936,
        "RAAN(deg)": 39.971467645739,
        "Satellite Name": "Starlink Shell 1 183",
        "Satellite Number": 183,
        "Semi-Major Axis(m)": 6931778.249405717,
        "Time(s)": 550
    },
    {
        "Altitude(m)": 554196.5844222944,
        "Argument of Periapsis(deg)": 0.019520394852629266,
        "Eccentricity": 0.0,
        "Inclination(deg)": 53.0,
        "Latitude(deg)": 23.8490716958004,
        "Longitude(deg)": 98.31411196875523,
        "Mean Anomaly(deg)": 149.64804739917605,
        "RAAN(deg)": 39.97094887566152,
        "Satellite Name": "Starlink Shell 1 183",
        "Satellite Number": 183,
        "Semi-Major Axis(m)": 6931778.249405717,
        "Time(s)": 560
    }
]